ONEWEB-0228             
1 48780U 21045P   23196.00057886  .00000034  00000+0  55198-4 0  9992
2 48780  87.9023 111.9008 0001837  73.9749 286.1584 13.15546773105019
